{
  "norad_id": 49754,
  "name": "STARLINK-3193",
  "history": [
    {
      "epoch": "2026-03-28T14:59:08.110752Z",
      "apogee_km": 540.830581943258,
      "perigee_km": 538.6528337260324,
      "latitude_deg": -3.966179393292974e-05,
      "longitude_deg": 3.397903730761593,
      "height_km": 540.6256692406121,
      "semi_major_axis_km": 6917.878707834645,
      "eccentricity": 0.0001574,
      "inclination_deg": 53.2179,
      "raan_deg": 54.2239,
      "arg_perigee_deg": 89.3946,
      "mean_anomaly_deg": 270.7226,
      "mean_motion_rev_day": 15.0884055
    },
    {
      "epoch": "2026-03-29T03:42:12.811680Z",
      "apogee_km": 540.7948517616014,
      "perigee_km": 538.6586154406659,
      "latitude_deg": -5.490538575508755e-06,
      "longitude_deg": 169.72693329903092,
      "height_km": 540.621476937241,
      "semi_major_axis_km": 6917.863733601133,
      "eccentricity": 0.0001544,
      "inclination_deg": 53.2178,
      "raan_deg": 51.8448,
      "arg_perigee_deg": 89.9597,
      "mean_anomaly_deg": 270.1572,
      "mean_motion_rev_day": 15.08845449
    },
    {
      "epoch": "2026-03-30T03:33:00.557568Z",
      "apogee_km": 540.8821985836439,
      "perigee_km": 538.6269659278287,
      "latitude_deg": 1.158373870806215e-05,
      "longitude_deg": 166.58886049306417,
      "height_km": 540.6221055180263,
      "semi_major_axis_km": 6917.8915822557365,
      "eccentricity": 0.000163,
      "inclination_deg": 53.2179,
      "raan_deg": 47.385,
      "arg_perigee_deg": 88.5845,
      "mean_anomaly_deg": 271.5334,
      "mean_motion_rev_day": 15.08836338
    },
    {
      "epoch": "2026-03-30T03:33:00.559296Z",
      "apogee_km": 540.8825444782242,
      "perigee_km": 538.6266200332493,
      "latitude_deg": 6.968339947508944e-06,
      "longitude_deg": 166.588849841768,
      "height_km": 540.6220969736316,
      "semi_major_axis_km": 6917.8915822557365,
      "eccentricity": 0.00016305,
      "inclination_deg": 53.2179,
      "raan_deg": 47.385,
      "arg_perigee_deg": 88.5845,
      "mean_anomaly_deg": 271.5334,
      "mean_motion_rev_day": 15.08836338
    },
    {
      "epoch": "2026-03-30T14:40:42.326400Z",
      "apogee_km": 540.8672755028192,
      "perigee_km": 538.6189644638253,
      "latitude_deg": -2.748701399999904e-05,
      "longitude_deg": -2.8743265937478624,
      "height_km": 540.6306061781096,
      "semi_major_axis_km": 6917.8801199833215,
      "eccentricity": 0.0001625,
      "inclination_deg": 53.2178,
      "raan_deg": 45.3029,
      "arg_perigee_deg": 89.5976,
      "mean_anomaly_deg": 270.5202,
      "mean_motion_rev_day": 15.08840088
    },
    {
      "epoch": "2026-03-31T06:34:33.466944Z",
      "apogee_km": 540.9028285779223,
      "perigee_km": 538.5410715323742,
      "latitude_deg": -5.539268786252937e-05,
      "longitude_deg": 115.03527916326642,
      "height_km": 540.6496963232997,
      "semi_major_axis_km": 6917.858950055148,
      "eccentricity": 0.0001707,
      "inclination_deg": 53.2182,
      "raan_deg": 42.3285,
      "arg_perigee_deg": 91.5738,
      "mean_anomaly_deg": 268.5449,
      "mean_motion_rev_day": 15.08847014
    },
    {
      "epoch": "2026-04-01T03:14:34.929600Z",
      "apogee_km": 540.8589451242042,
      "perigee_km": 538.660990899527,
      "latitude_deg": 6.799718362347188e-05,
      "longitude_deg": 160.31391116275756,
      "height_km": 540.6743712849093,
      "semi_major_axis_km": 6917.896968011865,
      "eccentricity": 0.00015886,
      "inclination_deg": 53.2181,
      "raan_deg": 38.4619,
      "arg_perigee_deg": 90.9883,
      "mean_anomaly_deg": 269.1292,
      "mean_motion_rev_day": 15.08834576
    },
    {
      "epoch": "2026-04-02T18:59:13.384032Z",
      "apogee_km": 540.8180341718653,
      "perigee_km": 538.6997744459668,
      "latitude_deg": 6.585208313437924e-05,
      "longitude_deg": -84.91004431687631,
      "height_km": 540.7280377501531,
      "semi_major_axis_km": 6917.895904308916,
      "eccentricity": 0.0001531,
      "inclination_deg": 53.2188,
      "raan_deg": 31.0304,
      "arg_perigee_deg": 93.9807,
      "mean_anomaly_deg": 266.1361,
      "mean_motion_rev_day": 15.08834924
    },
    {
      "epoch": "2026-04-02T18:59:13.384896Z",
      "apogee_km": 540.8182417087428,
      "perigee_km": 538.6995669090902,
      "latitude_deg": 6.308476901796225e-05,
      "longitude_deg": -84.91004998417947,
      "height_km": 540.7280521575173,
      "semi_major_axis_km": 6917.895904308916,
      "eccentricity": 0.00015313,
      "inclination_deg": 53.2188,
      "raan_deg": 31.0304,
      "arg_perigee_deg": 93.9807,
      "mean_anomaly_deg": 266.1361,
      "mean_motion_rev_day": 15.08834924
    }
  ]
}